{
  "links" : {
    "next" : "https://api.nasa.gov/neo/rest/v1/feed?start_date=2008-11-09&end_date=2008-11-09&detailed=true&api_key=t0TVs3DtDT2H8Oy2Zy8m2eVrNsAVKAexjcZXUckd",
    "prev" : "https://api.nasa.gov/neo/rest/v1/feed?start_date=2008-11-07&end_date=2008-11-07&detailed=true&api_key=t0TVs3DtDT2H8Oy2Zy8m2eVrNsAVKAexjcZXUckd",
    "self" : "https://api.nasa.gov/neo/rest/v1/feed?start_date=2008-11-08&end_date=2008-11-08&detailed=true&api_key=t0TVs3DtDT2H8Oy2Zy8m2eVrNsAVKAexjcZXUckd"
  },
  "element_count" : 4,
  "near_earth_objects" : {
    "2008-11-08" : [ {
      "links" : {
        "self" : "https://api.nasa.gov/neo/rest/v1/neo/2307493?api_key=t0TVs3DtDT2H8Oy2Zy8m2eVrNsAVKAexjcZXUckd"
      },
      "neo_reference_id" : "2307493",
      "name" : "307493 (2002 XP90)",
      "nasa_jpl_url" : "http://ssd.jpl.nasa.gov/sbdb.cgi?sstr=2307493",
      "absolute_magnitude_h" : 18.6,
      "estimated_diameter" : {
        "kilometers" : {
          "estimated_diameter_min" : 0.5064714588,
          "estimated_diameter_max" : 1.1325046106
        },
        "meters" : {
          "estimated_diameter_min" : 506.4714588346,
          "estimated_diameter_max" : 1132.5046106177
        },
        "miles" : {
          "estimated_diameter_min" : 0.3147066768,
          "estimated_diameter_max" : 0.7037055224
        },
        "feet" : {
          "estimated_diameter_min" : 1661.651821003,
          "estimated_diameter_max" : 3715.566426699
        }
      },
      "is_potentially_hazardous_asteroid" : false,
      "close_approach_data" : [ {
        "close_approach_date" : "2008-11-08",
        "epoch_date_close_approach" : 1226131200000,
        "relative_velocity" : {
          "kilometers_per_second" : "16.0754249753",
          "kilometers_per_hour" : "57871.5299111639",
          "miles_per_hour" : "35959.1181273007"
        },
        "miss_distance" : {
          "astronomical" : "0.2715249776",
          "lunar" : "105.6232147217",
          "kilometers" : "40619556",
          "miles" : "25239822"
        },
        "orbiting_body" : "Earth"
      } ],
      "orbital_data" : {
        "orbit_id" : "41",
        "orbit_determination_date" : "2017-06-21 06:19:27",
        "orbit_uncertainty" : "0",
        "minimum_orbit_intersection" : ".0519705",
        "jupiter_tisserand_invariant" : "3.444",
        "epoch_osculation" : "2458000.5",
        "eccentricity" : ".5874365334257151",
        "semi_major_axis" : "2.078833739834803",
        "inclination" : "23.11594016451922",
        "ascending_node_longitude" : "78.60008286750406",
        "orbital_period" : "1094.783043389358",
        "perihelion_distance" : ".8576508541378314",
        "perihelion_argument" : "324.1354782122878",
        "aphelion_distance" : "3.300016625531775",
        "perihelion_time" : "2458054.952947593696",
        "mean_anomaly" : "342.094113302083",
        "mean_motion" : ".3288322761060216",
        "equinox" : "J2000"
      }
    }, {
      "links" : {
        "self" : "https://api.nasa.gov/neo/rest/v1/neo/3430408?api_key=t0TVs3DtDT2H8Oy2Zy8m2eVrNsAVKAexjcZXUckd"
      },
      "neo_reference_id" : "3430408",
      "name" : "(2008 TV25)",
      "nasa_jpl_url" : "http://ssd.jpl.nasa.gov/sbdb.cgi?sstr=3430408",
      "absolute_magnitude_h" : 20.0,
      "estimated_diameter" : {
        "kilometers" : {
          "estimated_diameter_min" : 0.2658,
          "estimated_diameter_max" : 0.5943468684
        },
        "meters" : {
          "estimated_diameter_min" : 265.8,
          "estimated_diameter_max" : 594.3468684194
        },
        "miles" : {
          "estimated_diameter_min" : 0.1651604118,
          "estimated_diameter_max" : 0.369309908
        },
        "feet" : {
          "estimated_diameter_min" : 872.047272,
          "estimated_diameter_max" : 1949.9569797852
        }
      },
      "is_potentially_hazardous_asteroid" : false,
      "close_approach_data" : [ {
        "close_approach_date" : "2008-11-08",
        "epoch_date_close_approach" : 1226131200000,
        "relative_velocity" : {
          "kilometers_per_second" : "13.1629593477",
          "kilometers_per_hour" : "47386.6536516624",
          "miles_per_hour" : "29444.2237648343"
        },
        "miss_distance" : {
          "astronomical" : "0.1873837839",
          "lunar" : "72.8922958374",
          "kilometers" : "28032216",
          "miles" : "17418412"
        },
        "orbiting_body" : "Earth"
      } ],
      "orbital_data" : {
        "orbit_id" : "23",
        "orbit_determination_date" : "2017-04-06 09:02:36",
        "orbit_uncertainty" : "1",
        "minimum_orbit_intersection" : ".0587775",
        "jupiter_tisserand_invariant" : "3.781",
        "epoch_osculation" : "2458000.5",
        "eccentricity" : ".5128611139940791",
        "semi_major_axis" : "1.88518115929324",
        "inclination" : "9.043925255646903",
        "ascending_node_longitude" : "164.0221997456255",
        "orbital_period" : "945.4271349703938",
        "perihelion_distance" : ".9183450498574595",
        "perihelion_argument" : "297.0109376537374",
        "aphelion_distance" : "2.85201726872902",
        "perihelion_time" : "2457653.673459817072",
        "mean_anomaly" : "132.0647037169756",
        "mean_motion" : ".3807802702968468",
        "equinox" : "J2000"
      }
    }, {
      "links" : {
        "self" : "https://api.nasa.gov/neo/rest/v1/neo/3655395?api_key=t0TVs3DtDT2H8Oy2Zy8m2eVrNsAVKAexjcZXUckd"
      },
      "neo_reference_id" : "3655395",
      "name" : "(2013 YM2)",
      "nasa_jpl_url" : "http://ssd.jpl.nasa.gov/sbdb.cgi?sstr=3655395",
      "absolute_magnitude_h" : 26.2,
      "estimated_diameter" : {
        "kilometers" : {
          "estimated_diameter_min" : 0.0152951935,
          "estimated_diameter_max" : 0.0342010925
        },
        "meters" : {
          "estimated_diameter_min" : 15.2951935344,
          "estimated_diameter_max" : 34.201092472
        },
        "miles" : {
          "estimated_diameter_min" : 0.0095039897,
          "estimated_diameter_max" : 0.021251567
        },
        "feet" : {
          "estimated_diameter_min" : 50.1810827555,
          "estimated_diameter_max" : 112.2083122258
        }
      },
      "is_potentially_hazardous_asteroid" : false,
      "close_approach_data" : [ {
        "close_approach_date" : "2008-11-08",
        "epoch_date_close_approach" : 1226131200000,
        "relative_velocity" : {
          "kilometers_per_second" : "3.993831477",
          "kilometers_per_hour" : "14377.7933171223",
          "miles_per_hour" : "8933.8016308531"
        },
        "miss_distance" : {
          "astronomical" : "0.0431861275",
          "lunar" : "16.7994041443",
          "kilometers" : "6460553",
          "miles" : "4014401.5"
        },
        "orbiting_body" : "Earth"
      } ],
      "orbital_data" : {
        "orbit_id" : "6",
        "orbit_determination_date" : "2017-04-06 08:43:14",
        "orbit_uncertainty" : "7",
        "minimum_orbit_intersection" : ".0164897",
        "jupiter_tisserand_invariant" : "6.696",
        "epoch_osculation" : "2458000.5",
        "eccentricity" : ".1542221582788758",
        "semi_major_axis" : ".8845289977542871",
        "inclination" : "3.302386087913761",
        "ascending_node_longitude" : "92.19900327426852",
        "orbital_period" : "303.8551065761371",
        "perihelion_distance" : ".7481150266603701",
        "perihelion_argument" : "160.6566210346679",
        "aphelion_distance" : "1.020942968848204",
        "perihelion_time" : "2457996.799734577001",
        "mean_anomaly" : "4.383982771558135",
        "mean_motion" : "1.184775217558487",
        "equinox" : "J2000"
      }
    }, {
      "links" : {
        "self" : "https://api.nasa.gov/neo/rest/v1/neo/3733933?api_key=t0TVs3DtDT2H8Oy2Zy8m2eVrNsAVKAexjcZXUckd"
      },
      "neo_reference_id" : "3733933",
      "name" : "(2015 VH65)",
      "nasa_jpl_url" : "http://ssd.jpl.nasa.gov/sbdb.cgi?sstr=3733933",
      "absolute_magnitude_h" : 27.7,
      "estimated_diameter" : {
        "kilometers" : {
          "estimated_diameter_min" : 0.0076657557,
          "estimated_diameter_max" : 0.0171411509
        },
        "meters" : {
          "estimated_diameter_min" : 7.6657557353,
          "estimated_diameter_max" : 17.1411509231
        },
        "miles" : {
          "estimated_diameter_min" : 0.0047632783,
          "estimated_diameter_max" : 0.0106510141
        },
        "feet" : {
          "estimated_diameter_min" : 25.1501180466,
          "estimated_diameter_max" : 56.2373735944
        }
      },
      "is_potentially_hazardous_asteroid" : false,
      "close_approach_data" : [ {
        "close_approach_date" : "2008-11-08",
        "epoch_date_close_approach" : 1226131200000,
        "relative_velocity" : {
          "kilometers_per_second" : "18.0383598152",
          "kilometers_per_hour" : "64938.0953348928",
          "miles_per_hour" : "40350.0070707283"
        },
        "miss_distance" : {
          "astronomical" : "0.3765249261",
          "lunar" : "146.4682006836",
          "kilometers" : "56327328",
          "miles" : "35000180"
        },
        "orbiting_body" : "Earth"
      } ],
      "orbital_data" : {
        "orbit_id" : "6",
        "orbit_determination_date" : "2017-04-06 08:30:49",
        "orbit_uncertainty" : "6",
        "minimum_orbit_intersection" : ".0145851",
        "jupiter_tisserand_invariant" : "6.877",
        "epoch_osculation" : "2458000.5",
        "eccentricity" : ".2283063963369787",
        "semi_major_axis" : ".8515275457794295",
        "inclination" : "13.37646294124596",
        "ascending_node_longitude" : "227.1365037671775",
        "orbital_period" : "287.0096366874427",
        "perihelion_distance" : ".6571183604208563",
        "perihelion_argument" : "330.2186154684936",
        "aphelion_distance" : "1.045936731138003",
        "perihelion_time" : "2458018.330160761042",
        "mean_anomaly" : "337.6353924974111",
        "mean_motion" : "1.254313284233187",
        "equinox" : "J2000"
      }
    } ]
  }
}